BLACKJACK ACES-1        
1 56956U 23084AA  25289.36930236  .00014640  00000+0  65487-3 0  9993
2 56956  97.5890  57.4641 0008015 109.1439 251.0665 15.21377479 79859
ION SCV-011             
1 56957U 23084AB  25289.41050227  .00008219  00000+0  32913-3 0  9996
2 56957  98.1257  89.8505 0008139 156.3058 203.8554 15.25325292128600
GHOST-3                 
1 56958U 23084AC  25289.33713831  .00020068  00000+0  54202-3 0  9996
2 56958  97.5925  62.1747 0008750  92.7473 267.4773 15.37754339130413
TOMORROW-R2             
1 56962U 23084AG  25289.36199993  .00041704  00000+0  70009-3 0  9994
2 56962  97.5851  67.6224 0006527  75.4973 284.7002 15.51662161130783
AFR-1                   
1 56964U 23084AJ  25290.14228030  .00010070  00000+0  40037-3 0  9999
2 56964  97.5965  57.0426 0012447 112.1516 248.1044 15.25426291130130
DROID.001               
1 56965U 23084AK  25289.64966021  .00069595  00000+0  87739-3 0  9998
2 56965  97.5829  70.0048 0004678  51.3342 308.8332 15.59369775130979
METEOR-M2 3             
1 57166U 23091A   25290.19964913  .00000013  00000+0  24763-4 0  9999
2 57166  98.6464 344.7016 0004575 144.6935 215.4548 14.24015777119932
STRATOSAT-TK 1 (RS52S)  
1 57167U 23091B   25290.17817284  .00118667  00000+0  17332-2 0  9993
2 57167  97.5350 358.8609 0006606 199.9731 160.1265 15.55213781128036
UMKA 1 (RS40S)          
1 57172U 23091G   25290.10382307  .00011717  00000+0  59398-3 0  9992
2 57172  97.5436 344.8331 0012573 242.9613 117.0337 15.17046108127105
2023-091H               
1 57173U 23091H   25290.17277235  .00015696  00000+0  68825-3 0  9998
2 57173  97.5429 347.0123 0010156 244.0226 115.9964 15.22024029127253
2023-091J               
1 57174U 23091J   25290.12396052  .00006986  00000+0  41458-3 0  9998
2 57174  97.5443 341.5310 0012345 265.4306  94.5514 15.11586053126884
CUBEBEL 2 (EU11S)       
1 57175U 23091K   25290.15244053  .00014516  00000+0  63588-3 0  9991
2 57175  97.5434 346.9005 0010073 246.3830 113.6348 15.22077535127242
SITRO-AIS 5 (KATYS)     
1 57176U 23091L   25290.16566579  .00021236  00000+0  91466-3 0  9996
2 57176  97.5439 347.4292 0012121 233.7624 126.2492 15.22548553127275
ZORKIY-2M 1             
1 57177U 23091M   25290.20142646  .00012805  00000+0  65556-3 0  9990
2 57177  97.5475 345.1165 0013290 238.7989 121.1942 15.16670442127110
CUBESX-HSE 3 (RS42S)    
1 57178U 23091N   25290.17496037  .00022672  00000+0  94332-3 0  9990
2 57178  97.5465 348.4857 0011768 224.8041 135.2246 15.23711325127327
MONITOR-3 (RS58S)       
1 57180U 23091Q   25290.22495797  .00018455  00000+0  81680-3 0  9997
2 57180  97.5463 347.4326 0012348 228.6925 131.3248 15.21648283127268
MONITOR-4 (RS57S)       
1 57182U 23091S   25290.21683688  .00018547  00000+0  81937-3 0  9993
2 57182  97.5456 347.3838 0012350 229.4144 130.6018 15.21710133127265
MONITOR-2 (RS39S)       
1 57184U 23091U   25290.19752529  .00007948  00000+0  41917-3 0  9990
2 57184  97.5461 345.0307 0010784 231.9703 128.0557 15.15785737127104
SVYATOBOR 1 (RS60S)     
1 57187U 23091X   25290.21501245  .00016135  00000+0  72401-3 0  9993
2 57187  97.5466 348.0861 0009684 218.1203 141.9348 15.21232525127302
HORS 1                  
1 57188U 23091Y   25290.21080884  .00016569  00000+0  74276-3 0  9998
2 57188  97.5447 347.8865 0009194 217.9409 142.1179 15.21264869127305
VIZARD-METEO (RS38S)    
1 57189U 23091Z   25290.19561126  .00025722  00000+0  97203-3 0  9995
2 57189  97.5454 350.9311 0008337 205.7727 154.3097 15.26938169127491
NANOZOND 1 (RS49S)      
1 57190U 23091AA  25290.21306297  .00085183  00000+0  18043-2 0  9997
2 57190  97.5400 357.6459 0005722 189.3287 170.7856 15.44774512127950
SITRO-AIS 6 (CHIRKIN)   
1 57192U 23091AC  25290.17150344  .00012502  00000+0  55189-3 0  9992
2 57192  97.5437 347.3997 0011626 232.5785 127.4393 15.21836591127270
SITRO-AIS 8 (ANOKHIN)   
1 57193U 23091AD  25290.20086671  .00022474  00000+0  92216-3 0  9999
2 57193  97.5433 348.2591 0011498 231.7015 128.3189 15.24186435127339
SITRO-AIS 7 (FARTUSHNIY)
1 57194U 23091AE  25290.20275109  .00011167  00000+0  49555-3 0  9991
2 57194  97.5437 347.3470 0011435 233.6773 126.3408 15.21687904127272
AVION KALUGA 650        
1 57195U 23091AF  25290.18156398  .00011797  00000+0  60221-3 0  9999
2 57195  97.5473 345.7985 0010059 231.0646 128.9691 15.16826153127141
HORS 2                  
1 57196U 23091AG  25290.20977654  .00021432  00000+0  87375-3 0  9995
2 57196  97.5460 349.7239 0008782 213.7044 146.3636 15.24437691127410
A-SEANSAT-PG1           
1 57197U 23091AH  25290.16704278  .00028038  00000+0  10396-2 0  9998
2 57197  97.5437 350.7787 0008156 212.5500 147.5237 15.27548673127498
SITRO-AIS 10 (BURDAEV)  
1 57199U 23091AK  25290.20456455  .00028238  00000+0  10273-2 0  9992
2 57199  97.5446 351.3229 0008002 208.7838 151.2961 15.28176132127527
SITRO-AIS 9 (SHCHUKIN)  
1 57201U 23091AM  25290.17405836  .00027541  00000+0  10095-2 0  9997
2 57201  97.5445 351.1606 0007983 209.2022 150.8771 15.27933911127513
UTMN 2 (RS27S)          
1 57203U 23091AP  25290.20549704  .00017008  00000+0  68942-3 0  9998
2 57203  97.5454 349.8392 0008849 209.6201 150.4536 15.24681280127427
SITRO-AIS 12 (SMIRENNIY)
1 57204U 23091AQ  25290.20418972  .00026721  00000+0  97297-3 0  9998
2 57204  97.5453 351.5303 0008020 202.4143 157.6747 15.28158600127530
ARCCUBE 1 (RS25S)       
1 57205U 23091AR  25290.21508506  .00244135  00000+0  21589-2 0  9994
2 57205  97.5270   2.4235 0004281 207.8987 152.2045 15.67879217128297
SITRO-AIS 11 (SHEFFER)  
1 57208U 23091AU  25290.20386944  .00027872  00000+0  10071-2 0  9997
2 57208  97.5452 351.6600 0007922 202.6377 157.4514 15.28403659127543
H2SAT (HEINRICH HERTZ)  
1 57213U 23093A   25290.13084206  .00000051  00000+0  00000+0 0  9991
2 57213   0.0574 241.4265 0001466  45.7235 167.2778  0.99789033  8478
KUZGTU 1 (RS47S)        
1 57217U 23091AV  25290.12731336  .00020623  00000+0  87869-3 0  9994
2 57217  97.5440 347.8139 0011830 227.6665 132.3569 15.22927228127295
2023-103B               
1 57422U 23103B   25282.41769821  .00000439  17137-5  17416-5 0  9990
2 57422  96.2974 338.5680 0026885 175.9389 184.2116 16.01093718127079
FENGYUN 3F              
1 57490U 23111A   25290.14602476  .00000122  00000+0  78069-4 0  9999
2 57490  98.7149 359.3348 0001464  88.7973 271.3371 14.19871476114375
HJ-2F                   
1 57519U 23116A   25290.20207591  .00015530  00000+0  70407-3 0  9998
2 57519  97.3890 294.8895 0008732 132.4823 227.7152 15.20891122121802
XRISM                   
1 57800U 23137A   25289.25500493  .00006629  00000+0  39813-3 0  9999
2 57800  31.0014 136.4392 0008396  25.0039 335.1004 15.09451041115939
METEOR-M2 4             
1 59051U 24039A   25290.14879789  .00000098  00000+0  63540-4 0  9997
2 59051  98.6663 247.9718 0007546 145.5869 214.5799 14.22388089 84710
GRBBETA                 
1 60237U 24128C   25290.18595385  .00005340  00000+0  38657-3 0  9990
2 60237  61.9925 347.2743 0056985  84.6309 276.1281 15.03959627 69688
2024-149A               
1 60468U 24149A   25290.20030860  .00012023  00000+0  44804-3 0  9991
2 60468  97.3979   6.4588 0003832  27.7699 332.3744 15.27589048 64899
WARATAH SEED-1          
1 60469U 24149B   25290.20768235  .00017508  00000+0  63486-3 0  9996
2 60469  97.3953   6.5047 0002516  41.0377 319.1052 15.28407445 64901
PHISAT 2                
1 60470U 24149C   25290.17479951  .00010803  00000+0  41906-3 0  9992
2 60470  97.4007   6.2024 0002498  59.2529 300.8955 15.26290024 64860
LEMUR-2-TOMATOKECHUP    
1 60471U 24149D   25290.16237979  .00015121  00000+0  53114-3 0  9996
2 60471  97.4034   7.4099 0002536  56.0335 304.1146 15.29483508 64930
CONNECTA IOT-1          
1 60472U 24149E   25290.17589042  .00008025  00000+0  34807-3 0  9992
2 60472  97.4010   5.4767 0003228  69.6018 290.5565 15.22612609 64811
LOPEN                   
1 60473U 24149F   25290.14914109  .00018356  00000+0  61180-3 0  9998
2 60473  97.4015   7.8075 0002635  66.5278 293.6240 15.31146304 64964
ROCK                    
1 60474U 24149G   25290.13933580  .00022721  00000+0  75503-3 0  9997
2 60474  97.4014   7.8143 0002623  66.4008 293.7508 15.31199234 64965
CONNECTA IOT-3          
1 60475U 24149H   25289.19724706  .00005334  00000+0  23417-3 0  9998
2 60475  97.3962   4.3787 0004833  62.6453 297.5274 15.22352509 64676
QUBE                    
1 60476U 24149J   25290.20509747  .00027449  00000+0  81937-3 0  9991
2 60476  97.4010   8.9327 0002850  49.8367 310.3125 15.34588506 65042
SATORO-T2               
1 60477U 24149K   25290.15016550  .00085524  00000+0  16358-2 0  9993
2 60477  97.3969  11.6032 0000554   7.3819 352.7439 15.47771522 65223
WREN-1                  
1 60478U 24149L   25290.19713725  .00011196  00000+0  37137-3 0  9999
2 60478  97.4002   8.3838 0006504  63.1097 297.0809 15.31402108 65012
TOMORROW-S1             
1 60479U 24149M   25290.19814778  .00009771  00000+0  36044-3 0  9992
2 60479  97.3985   6.9229 0003770  55.5774 304.5821 15.27982307 64925
FLOCK 4BE-18            
1 60480U 24149N   25290.20079314  .00022331  00000+0  73042-3 0  9991
2 60480  97.3974   7.8280 0005209  57.9947 302.1800 15.31703363 64984
FLOCK 4BE-7             
1 60481U 24149P   25290.20997117  .00019279  00000+0  65149-3 0  9998
2 60481  97.4004   7.6841 0004377  64.0857 296.0835 15.30684481 64960
FLOCK 4BE-4             
1 60482U 24149Q   25290.18599449  .00284254  00000+0  22994-2 0  9999
2 60482  97.3983  18.9240 0006809 310.5907  49.4761 15.69930316 65705
FLOCK 4BE-16            
1 60483U 24149R   25290.19399171  .00015254  00000+0  50129-3 0  9995
2 60483  97.4000   7.9484 0004004  65.9632 294.2028 15.31639244 64986
FLOCK 4BE-26            
1 60484U 24149S   25290.19381655  .00021251  00000+0  70671-3 0  9992
2 60484  97.3975   7.6430 0004745  61.6883 298.4836 15.31181008 64970
